NORAD_CAT_ID,OBJECT_NAME,OBJECT_TYPE,EPOCH,MEAN_MOTION,ECCENTRICITY,INCLINATION,RA_OF_ASC_NODE,ARG_OF_PERICENTER,MEAN_ANOMALY,BSTAR,MEAN_MOTION_DOT,MEAN_MOTION_DDOT,TLE_LINE0,TLE_LINE1,TLE_LINE2,SEMIMAJOR_AXIS,PERIOD,APOGEE,PERIGEE,DECAYED
56491.0,STARLINK-5842,PAYLOAD,2024-08-21 18:34:59,14.98322357,0.000342,69.9972,88.8129,278.3209,81.7563,3.7636e-06,-4.8e-07,0.0,0 STARLINK-5842,1 56491U 23064AV  24234.77429538 -.00000048  00000-0  37636-5 0  9993,2 56491  69.9972  88.8129 0003420 278.3209  81.7563 14.98322357 71973,6950.217,96.107,574.459,569.705,0.0
